[
    {
        "Altitude(m)": 610399.5164046618,
        "Argument of Periapsis(deg)": 0.0,
        "Eccentricity": 0.0,
        "Inclination(deg)": 60.0,
        "Latitude(deg)": 52.111300643185615,
        "Longitude(deg)": -137.41559895752582,
        "Mean Anomaly(deg)": 65.45449999999998,
        "RAAN(deg)": 275.0,
        "Satellite Name": "Test1 1214",
        "Satellite Number": 1214,
        "Semi-Major Axis(m)": 6980739.136638005,
        "Time(s)": 0
    },
    {
        "Altitude(m)": 610481.6671650321,
        "Argument of Periapsis(deg)": 0.00010418945913296404,
        "Eccentricity": 0.0,
        "Inclination(deg)": 60.0,
        "Latitude(deg)": 52.4709018866015,
        "Longitude(deg)": -136.63346211025112,
        "Mean Anomaly(deg)": 66.07460614546183,
        "RAAN(deg)": 274.9995799508602,
        "Satellite Name": "Test1 1214",
        "Satellite Number": 1214,
        "Semi-Major Axis(m)": 6980739.136638005,
        "Time(s)": 10
    }
]